# From  26, 114
D/1766 G1 (Helfenzrieder),e,8.716,93.542,175.688,2.72378,0.219253,0.8521337,279.538,10/28.0/2023,2000,g  9.0,4.0
# From  89, 256
D/1884 O1 (Barnard),e,9.3074,332.8946,339.8270,3.084054,0.1819790,0.57125582,214.0057,10/28.0/2023,2000,g  9.0,4.0
# From  89, 256
D/1886 K1 (Brooks),e,10.9262,39.1626,208.4414,3.551758,0.1472445,0.46834894,271.7553,10/28.0/2023,2000,g  9.0,4.0
# From CCO 8
D/1894 F1 (Denning),e,1.4228,297.3387,198.4084,3.825614,0.1317202,0.69385608,89.3138,10/28.0/2023,2000,g  9.0,4.0
# From  13, 428
D/1895 Q1 (Swift),e,13.5235,135.7901,199.2578,3.723089,0.1371984,0.62684801,266.9151,10/28.0/2023,2000,g  9.0,4.0
# From  114, 147
D/1918 W1 (Schorr),e,6.8224,75.9291,326.4432,4.154742,0.1163826,0.31784154,322.8659,10/28.0/2023,2000,g  9.0,4.0
# From MPC 4601
D/1952 B1 (Harrington-Wilson),e,11.1703,116.4088,5.0010,3.079323,0.1823985,0.62507215,84.0720,10/28.0/2023,2000,g  9.0,4.0
# From MPC 11152
D/1977 C1 (Skiff-Kosai),e,3.1988,80.2889,25.2174,3.827111,0.1316429,0.26879272,108.2518,10/28.0/2023,2000,g  9.0,4.0
# From NK 779
D/1978 R1 (Haneda-Campos),e,4.9452,66.4917,307.1735,3.456050,0.1534031,0.62937409,29.6616,10/28.0/2023,2000,g  9.0,4.0
# From MPC 23764
D/1993 F2-D (Shoemaker-Levy),e,40.9108,160.7185,223.7472,4.219074,0.1137309,0.33201539,358.1464,10/28.0/2023,2000,g  9.0,4.0
# From MPEC 2022-S20
C/1995 O1 (Hale-Bopp),e,89.4027,282.4354,130.1950,177.1155,0.0004181,0.99498785,0.0000,03/30.7947/1997,2000,g -2.0,4.0
# From NK 1615
P/1996 R2 (Lagerkvist),e,2.6000,40.0588,333.4111,3.774002,0.1344315,0.31460316,230.7961,10/28.0/2023,2000,g 11.5,4.0
# From MPC 75703
P/1998 VS24 (LINEAR),e,5.0282,159.0760,244.6835,4.523355,0.1024502,0.24359709,215.5836,10/28.0/2023,2000,g 13.0,2.0
# From NK 731
P/1999 RO28 (LONEOS),e,7.5674,137.8834,231.3078,3.426099,0.1554190,0.67247950,246.0661,10/28.0/2023,2000,g 20.0,2.0
# From MPC 75704
P/1999 XN120 (Catalina),e,5.0299,285.2637,161.6787,4.179109,0.1153662,0.21071938,269.2648,10/28.0/2023,2000,g 13.5,2.0
# From NK 744
P/2000 R2 (LINEAR),e,11.6838,160.2950,176.5923,3.468182,0.1525988,0.53105195,243.0986,10/28.0/2023,2000,g 18.0,4.0
# From MPC 43019
P/2001 H5 (NEAT),e,8.3681,328.6352,224.6918,6.095673,0.0654895,0.59827780,192.5773,10/28.0/2023,2000,g 12.0,4.0
# From MPC 75704
P/2001 Q6 (NEAT),e,56.9121,22.1936,42.9247,7.970214,0.0438025,0.82364276,354.5985,10/28.0/2023,2000,g 13.5,4.0
# From MPC 47727
P/2002 EJ57 (LINEAR),e,4.9802,330.2590,167.2745,6.459127,0.0600404,0.59291033,117.5727,10/28.0/2023,2000,g 12.5,4.0
# From MPC109588
P/2002 T6 (NEAT-LINEAR),e,10.8566,205.9912,219.3004,7.790098,0.0453304,0.56523180,348.0349,10/28.0/2023,2000,g 10.5,4.0
# From MPC 75007
C/2002 VQ94 (LINEAR),e,70.7137,35.1658,99.8759,184.7591,0.0003925,0.96328896,2.5414,10/28.0/2023,2000,g  9.5,2.0
# From MPC 50354
P/2003 F2 (NEAT),e,11.6276,358.9789,192.2639,6.500855,0.0594632,0.54138424,85.9742,10/28.0/2023,2000,g 16.5,2.0
# From MPC 50139
P/2003 QX29 (NEAT),e,11.3969,264.5384,37.6716,8.008068,0.0434923,0.47200248,331.7707,10/28.0/2023,2000,g  8.5,4.0
# From MPC105235
P/2003 T12 (SOHO),e,11.0252,174.5855,219.7703,2.584679,0.2371888,0.77027721,300.7617,10/28.0/2023,2000,g 17.0,4.0
# From MPC 54558
P/2004 DO29 (Spacewatch-LINEAR),e,14.5288,147.3240,40.4787,7.304904,0.0499209,0.44182074,349.0605,10/28.0/2023,2000,g 13.5,2.0
# From MPEC 2022-YN2
P/2004 FY140 (LINEAR),e,2.1619,327.2733,254.1292,4.970096,0.0889523,0.19180854,252.0581,10/28.0/2023,2000,g 12.5,2.0
# From MPC 53304
P/2004 R3 (LINEAR-NEAT),e,12.7894,305.1353,37.6119,4.755743,0.0950335,0.25469555,73.1119,10/28.0/2023,2000,g 14.5,4.0
# From MPC 75705
P/2004 V5 (LINEAR-Hill),e,19.3479,47.7393,87.4619,8.005695,0.0435116,0.44621268,299.8528,10/28.0/2023,2000,g  8.0,4.0
# From MPC 75705
P/2004 V5-B (LINEAR-Hill),e,19.3479,47.7397,87.4648,8.006117,0.0435082,0.44623806,299.8157,10/28.0/2023,2000,g  8.0,4.0
# From MPC 54164
P/2005 E1 (Tubbiolo),e,4.2624,335.5281,193.8719,7.058322,0.0525596,0.37623178,1.5868,10/28.0/2023,2000,g 10.0,4.0
# From MPC 79019
P/2005 J1 (McNaught),e,31.7382,268.7981,338.9213,3.573201,0.1459210,0.56892521,269.1048,10/28.0/2023,2000,g 16.5,4.0
# From MPC 74246
P/2005 L1 (McNaught),e,7.6604,137.5602,151.5294,4.013294,0.1225893,0.21929045,87.5850,10/28.0/2023,2000,g  9.5,4.0
# From MPC 75706
P/2005 S2 (Skiff),e,3.1367,161.3644,229.5938,7.996430,0.0435873,0.19890244,276.6975,10/28.0/2023,2000,g  7.5,4.0
# From MPC 75706
P/2005 SB216 (LONEOS),e,24.1103,1.1276,83.2185,7.151208,0.0515389,0.46533111,318.2646,10/28.0/2023,2000,g 12.0,2.0
# From MPC 73461
P/2005 T3 (Read),e,6.2263,27.6708,6.7461,7.587682,0.0471564,0.17555510,311.7987,10/28.0/2023,2000,g  9.0,4.0
# From MPC 73461
P/2005 T4 (SWAN),e,60.2887,25.9490,41.8706,9.356103,0.0344399,0.92997017,226.8381,10/28.0/2023,2000,g 15.0,4.0
# From MPC 75706
P/2005 T5 (Broughton),e,21.3835,57.0686,304.7087,7.272130,0.0502587,0.55248177,330.0671,10/28.0/2023,2000,g 11.0,4.0
# From MPC 75707
P/2006 HR30 (Siding Spring),e,31.9038,309.8449,117.3929,7.804921,0.0452013,0.84352721,278.2839,10/28.0/2023,2000,g 11.0,4.0
# From MPC 75707
P/2007 C2 (Catalina),e,8.6124,275.2667,180.1534,7.006397,0.0531449,0.47284373,313.4398,10/28.0/2023,2000,g 10.0,4.0
# From MPC 84315
C/2007 D1 (LINEAR),e,41.5035,171.1874,339.7029,1143,0.0000255,0.99233285,0.0000,06/08.6853/2007,2000,g  3.5,4.0
# From MPC 82314
P/2007 K2 (Gibbs),e,7.6251,188.5906,347.3110,7.290541,0.0500685,0.68398591,302.0730,10/28.0/2023,2000,g 14.0,4.0
# From MPC 60925
P/2007 Q2 (Gilmore),e,10.2009,172.1897,162.8708,5.660290,0.0731890,0.66961975,77.9723,10/28.0/2023,2000,g 16.0,4.0
# From MPC 73462
P/2007 S1 (Zhao),e,5.9650,141.3315,245.2036,3.817045,0.1321640,0.33851387,51.0525,10/28.0/2023,2000,g 13.0,4.0
# From MPC 61994
P/2007 T2 (Kowalski),e,9.7508,3.3896,359.6709,3.044220,0.1855625,0.78565590,356.1743,10/28.0/2023,2000,g 18.5,4.0
# From MPC 64114
P/2008 O3 (Boattini),e,32.3294,47.6082,341.1681,8.211353,0.0418873,0.69665043,235.3636,10/28.0/2023,2000,g 13.0,4.0
# From MPC 75710
P/2008 Y3 (McNaught),e,38.7780,262.8289,238.0494,8.045331,0.0431905,0.44670512,234.5678,10/28.0/2023,2000,g  8.5,4.0
# From MPC 75710
P/2009 B1 (Boattini),e,22.2493,297.1046,128.9202,6.734328,0.0563979,0.63600161,304.9382,10/28.0/2023,2000,g 13.0,4.0
# From MPC 66466
C/2009 G1 (STEREO),e,8.5288,120.6866,175.5288,464.7514,0.0000984,0.99751808,0.0000,04/15.1552/2009,2000,g  9.0,4.0
# From MPC 75710
P/2009 O3 (Hill),e,16.2781,183.7091,154.4818,7.767162,0.0455314,0.68726151,239.6055,10/28.0/2023,2000,g 12.5,4.0
# From MPC 68902
P/2009 Q5 (McNaught),e,40.9851,160.2841,209.1418,7.426632,0.0486986,0.60985015,250.8369,10/28.0/2023,2000,g 10.0,4.0
# From MPC112389
P/2009 T2 (La Sagra),e,27.6168,216.3609,215.9018,7.714379,0.0459994,0.76712104,232.0146,10/28.0/2023,2000,g 14.0,4.0
# From MPC105235
P/2009 WX51 (Catalina),e,9.5923,31.5573,118.2533,3.082714,0.1820976,0.73932047,196.0403,10/28.0/2023,2000,g 19.0,2.0
# From MPC 74247
P/2009 Y2 (Kowalski),e,29.9694,262.0790,172.1467,6.546685,0.0588399,0.63727339,293.4692,10/28.0/2023,2000,g 13.0,4.0
# From MPC 75711
P/2010 A3 (Hill),e,14.8186,63.6505,42.2376,6.092617,0.0655388,0.73400902,327.1951,10/28.0/2023,2000,g 14.0,4.0
# From MPC 75008
P/2010 C1 (Scotti),e,9.1193,141.6609,3.2180,7.113856,0.0519453,0.26198340,266.6024,10/28.0/2023,2000,g  9.5,4.0
# From MPC 75008
P/2010 D2 (WISE),e,57.1133,319.8733,119.9323,6.721889,0.0565545,0.45170547,283.6435,10/28.0/2023,2000,g 16.0,4.0
# From MPC 75009
P/2010 E2 (Jarnac),e,15.3925,177.7945,8.2754,8.639536,0.0388122,0.71966288,192.9477,10/28.0/2023,2000,g 14.0,4.0
# From MPC 72851
P/2010 H2 (Vales),e,14.2795,64.1873,128.0406,3.831749,0.1314040,0.19711065,294.4695,10/28.0/2023,2000,g  6.0,4.0
# From MPC 70361
P/2010 H3 (SOHO),e,23.1338,77.1646,26.0768,3.036035,0.1863133,0.98547569,0.0000,05/25.1112/2026,2000,g 20.0,2.0
# From MPC 73463
P/2010 H4 (Scotti),e,2.3179,44.6162,179.2007,6.607228,0.0580330,0.26603021,284.5609,10/28.0/2023,2000,g 10.5,4.0
# From MPC 74637
P/2010 H5 (Scotti),e,14.0575,24.5908,174.6199,7.175216,0.0512804,0.15289990,255.6352,10/28.0/2023,2000,g 13.0,2.0
# From MPC 98558
P/2010 J3 (McMillan),e,13.2455,106.5071,157.5217,8.984541,0.0365982,0.72467492,176.3254,10/28.0/2023,2000,g 11.0,4.0
# From MPC 84315
P/2010 JC81 (WISE),e,38.8222,30.8801,12.4464,8.103703,0.0427247,0.77828808,194.9948,10/28.0/2023,2000,g  9.0,4.0
# From MPC 74248
P/2010 T2 (PANSTARRS),e,7.8886,57.9691,352.1236,5.629275,0.0737947,0.32884847,350.2363,10/28.0/2023,2000,g 11.5,4.0
# From MPEC 2023-O88
P/2010 TO20 (LINEAR-Grauer),e,2.4788,43.2732,267.8198,5.832080,0.0699792,0.05549838,23.1295,10/28.0/2023,2000,g  9.0,4.0
# From MPC 82316
P/2010 U1 (Boattini),e,8.2246,280.8046,86.3496,6.495208,0.0595408,0.24911959,297.7308,10/28.0/2023,2000,g  9.5,4.0
# From MPEC 2023-J95
C/2010 U3 (Boattini),e,55.5672,42.9872,88.0386,3764,0.0000043,0.99775784,0.0000,02/25.9037/2019,2000,g  1.0,4.0
# From MPC 79021
P/2010 UH55 (Spacewatch),e,8.0374,232.9014,225.1577,6.653449,0.0574293,0.56427483,263.5405,10/28.0/2023,2000,g 11.0,4.0
# From MPC 75009
P/2010 WK (LINEAR),e,11.4023,11.3441,40.9963,5.762268,0.0712548,0.69069945,340.9526,10/28.0/2023,2000,g 14.5,2.0
# From MPC 84021
P/2011 C2 (Gibbs),e,10.8878,11.9535,160.3996,7.412973,0.0488332,0.26963324,212.0632,10/28.0/2023,2000,g  9.0,4.0
# From MPC 79866
P/2011 FR143 (Lemmon),e,15.9733,190.8743,349.8564,6.868757,0.0547503,0.45135633,254.4387,10/28.0/2023,2000,g 14.0,2.0
# From MPC 82317
P/2011 JB15 (Spacewatch-Boattini),e,19.1353,153.5571,110.9791,7.372731,0.0492336,0.31499427,212.2233,10/28.0/2023,2000,g  9.0,4.0
# From MPC 87913
P/2011 N1 (ASH),e,35.7779,77.6272,330.4004,6.240502,0.0632230,0.54551121,263.6277,10/28.0/2023,2000,g 11.5,4.0
# From MPC 75714
P/2011 NO1 (Elenin),e,15.2454,295.8151,263.7181,5.536139,0.0756648,0.77483744,353.9503,10/28.0/2023,2000,g 15.0,4.0
# From MPEC 2022-ED3
P/2011 P1 (McNaught),e,5.6579,4.2917,349.1713,7.458046,0.0483912,0.32740801,233.7694,10/28.0/2023,2000,g  9.0,4.0
# From MPEC 2022-HC2
